OBJECT_NAME,OBJECT_ID,EPOCH,MEAN_MOTION,ECCENTRICITY,INCLINATION,RA_OF_ASC_NODE,ARG_OF_PERICENTER,MEAN_ANOMALY,EPHEMERIS_TYPE,CLASSIFICATION_TYPE,NORAD_CAT_ID,ELEMENT_SET_NO,REV_AT_EPOCH,BSTAR,MEAN_MOTION_DOT,MEAN_MOTION_DDOT
COSMOS 2251,1993-036A,2026-03-01T18:13:58.248480,14.33231729,.0025744,74.0405,171.5043,238.3935,121.4704,0,U,22675,999,70905,.53779E-4,.122E-5,0
COSMOS 2251 DEB,1993-036E,2026-03-01T19:40:07.008384,14.32603962,.0014784,74.0375,179.2452,182.1138,347.1130,0,U,33757,999,89128,.46017E-4,.99E-6,0
COSMOS 2251 DEB,1993-036F,2026-03-01T18:38:49.000128,14.52240031,.0013819,74.0263,66.0780,122.6215,229.3294,0,U,33758,999,89451,.90373E-3,.3648E-4,0
COSMOS 2251 DEB,1993-036H,2026-03-01T15:50:54.151872,14.35730613,.0021244,74.0319,136.6142,222.0806,256.4794,0,U,33760,999,89257,.10153E-3,.268E-5,0
COSMOS 2251 DEB,1993-036J,2026-03-01T12:02:00.250656,14.42811971,.0022347,74.0342,106.0044,175.7991,306.8377,0,U,33761,999,89370,.36057E-3,.118E-4,0
COSMOS 2251 DEB,1993-036K,2026-03-01T17:09:37.109376,14.33693030,.0015926,74.0425,165.6422,215.9247,268.0367,0,U,33762,999,89179,.61458E-4,.145E-5,0
COSMOS 2251 DEB,1993-036M,2026-03-01T15:21:42.439392,14.39695198,.0020752,74.0329,126.9478,69.7910,48.7478,0,U,33764,999,89292,.27926E-3,.85E-5,0
COSMOS 2251 DEB,1993-036N,2026-03-01T06:49:39.986976,15.15898346,.0057817,74.0011,10.0335,80.1518,280.6198,0,U,33765,999,90806,.2918E-2,.58746E-3,0
COSMOS 2251 DEB,1993-036P,2026-03-01T20:34:59.411712,14.35235219,.0063911,74.1884,351.2671,173.9663,186.2276,0,U,33766,999,88880,.56323E-3,.1625E-4,0
COSMOS 2251 DEB,1993-036R,2026-03-01T13:39:45.764352,13.58542534,.0368752,74.0665,92.6278,233.1626,250.1719,0,U,33768,999,84366,.47261E-3,.514E-5,0
COSMOS 2251 DEB,1993-036U,2026-03-01T20:51:01.003104,14.72585683,.0012332,74.0453,16.9646,19.4325,11.5344,0,U,33779,999,89692,.10526E-2,.668E-4,0
COSMOS 2251 DEB,1993-036X,2026-03-01T15:07:00.595200,14.40690718,.002032,74.0327,131.6233,187.0360,296.5323,0,U,33782,999,89262,.36932E-3,.1156E-4,0
COSMOS 2251 DEB,1993-036AA,2026-03-01T14:45:10.246752,14.72479400,.0020394,73.8638,265.0245,192.6960,223.6255,0,U,33785,999,89667,.1493E-2,.9487E-4,0
COSMOS 2251 DEB,1993-036AE,2026-03-01T19:26:57.611328,13.88935215,.0238748,74.0649,313.2016,50.0330,16.3002,0,U,33789,999,86193,.66186E-3,.984E-5,0
COSMOS 2251 DEB,1993-036AG,2026-03-01T14:56:19.166784,14.43603621,.002887,74.1714,252.2550,64.6977,2.0214,0,U,33791,999,89190,.81308E-3,.2746E-4,0
COSMOS 2251 DEB,1993-036AH,2026-03-01T19:59:58.284672,13.45989738,.0429257,73.8993,219.0042,269.8689,216.3983,0,U,33792,999,83506,.70013E-3,.707E-5,0
COSMOS 2251 DEB,1993-036AJ,2026-03-01T20:51:23.222592,14.28034162,.0077117,73.9830,6.0594,139.8156,284.2992,0,U,33793,999,88336,.64037E-3,.1616E-4,0
COSMOS 2251 DEB,1993-036AL,2026-03-01T16:19:42.475008,15.09906878,.0030172,74.0287,274.3481,335.0351,87.1024,0,U,33795,999,91211,.14615E-2,.23984E-3,0
COSMOS 2251 DEB,1993-036AN,2026-03-01T20:47:15.760032,14.58265973,.006251,74.0439,244.5249,311.2470,168.9102,0,U,33797,999,90138,.45391E-3,.2124E-4,0
COSMOS 2251 DEB,1993-036AP,2026-03-01T20:21:30.178944,14.44722774,.0090031,74.0319,348.5417,90.4579,326.2759,0,U,33798,999,89736,.17263E-3,.601E-5,0
COSMOS 2251 DEB,1993-036AQ,2026-03-01T17:03:27.371808,14.81648428,.002305,74.0310,286.0552,332.7350,90.1582,0,U,33799,999,89980,.14529E-2,.11469E-3,0
COSMOS 2251 DEB,1993-036AW,2026-03-01T17:32:04.991712,14.58070962,.0061957,74.0315,161.0406,327.9499,31.7903,0,U,33805,999,90378,.25336E-3,.1166E-4,0
COSMOS 2251 DEB,1993-036BC,2026-03-01T16:06:58.222944,15.08832866,.0028934,73.8369,138.5484,215.6664,264.9262,0,U,33811,999,91207,.17482E-2,.27852E-3,0
COSMOS 2251 DEB,1993-036BH,2026-03-01T20:21:37.195488,13.81936056,.0265473,73.8976,331.2975,329.0510,29.5191,0,U,33816,999,85766,.70135E-3,.959E-5,0
COSMOS 2251 DEB,1993-036BK,2026-03-01T06:51:12.573216,15.21101984,.0018237,74.0821,2.9095,309.6564,50.3024,0,U,33818,999,91053,.32514E-2,.7335E-3,0
COSMOS 2251 DEB,1993-036BL,2026-03-01T17:00:23.153184,14.32529345,.0092198,74.1778,66.9654,265.9977,216.4078,0,U,33819,999,88626,.79835E-3,.2244E-4,0
COSMOS 2251 DEB,1993-036BN,2026-03-01T20:12:27.084096,15.31142367,.0043594,74.0310,334.8873,342.6385,17.3324,0,U,33821,999,76209,.13875E-2,.43198E-3,0
COSMOS 2251 DEB,1993-036BP,2026-03-01T11:00:00.938016,14.13631295,.0147235,74.0690,54.6431,82.2946,41.2376,0,U,33822,999,87166,.14708E-2,.3055E-4,0
COSMOS 2251 DEB,1993-036BQ,2026-03-01T20:21:53.304768,13.99167972,.0206721,73.8119,10.6579,122.6129,259.9365,0,U,33823,999,86716,.6498E-3,.1108E-4,0
COSMOS 2251 DEB,1993-036BS,2026-03-01T19:46:42.278016,14.71283209,.008073,73.9808,233.8193,183.0395,243.0471,0,U,33825,999,90042,.20906E-2,.13578E-3,0
COSMOS 2251 DEB,1993-036BT,2026-03-01T14:29:12.808608,14.52757795,.0084311,74.0625,261.5100,286.6158,128.8164,0,U,33826,999,88914,.20971E-2,.9003E-4,0
COSMOS 2251 DEB,1993-036BV,2026-03-01T18:37:34.152672,14.44625069,.0027452,74.0442,91.0856,150.4627,330.7952,0,U,33828,999,89454,.38559E-3,.1315E-4,0
COSMOS 2251 DEB,1993-036BX,2026-03-01T12:37:31.623744,14.78043790,.004162,74.0303,75.7564,181.6109,303.3036,0,U,33830,999,90635,.83043E-3,.6057E-4,0
COSMOS 2251 DEB,1993-036BZ,2026-03-01T10:30:17.578944,14.61848613,.0019588,74.0527,59.6636,68.2554,91.9578,0,U,33832,999,89574,.16399E-2,.8198E-4,0
COSMOS 2251 DEB,1993-036CC,2026-03-01T18:49:47.154720,14.63134474,.0054423,74.0583,309.8143,340.5992,82.0471,0,U,33835,999,89945,.77324E-3,.4032E-4,0
COSMOS 2251 DEB,1993-036CD,2026-03-01T20:49:49.063008,14.81283816,.0027169,73.9956,102.6105,291.8060,247.3272,0,U,33836,999,65259,.12528E-2,.9813E-4,0
COSMOS 2251 DEB,1993-036CE,2026-03-01T15:51:52.695648,14.50892190,.0033479,74.0097,266.9891,110.1032,250.3736,0,U,33837,999,89940,.253E-3,.977E-5,0
COSMOS 2251 DEB,1993-036CF,2026-03-01T06:53:02.182848,14.48645437,.0025154,74.0392,2.6789,106.9612,44.1695,0,U,33838,999,89706,.48035E-3,.1788E-4,0
COSMOS 2251 DEB,1993-036CG,2026-03-01T09:22:39.480672,14.64698772,.0083243,74.0378,55.3137,148.9936,332.3070,0,U,33839,999,90731,.22867E-3,.1248E-4,0
COSMOS 2251 DEB,1993-036CJ,2026-03-01T13:50:36.818592,14.37987430,.0021066,74.0374,132.8811,202.1013,276.6732,0,U,33841,999,89247,.20772E-3,.603E-5,0
COSMOS 2251 DEB,1993-036CK,2026-03-01T17:22:22.393056,14.42901395,.0046319,74.0313,73.0191,164.5691,195.6890,0,U,33842,999,89476,.27881E-3,.917E-5,0
COSMOS 2251 DEB,1993-036CM,2026-03-01T16:29:01.160736,14.33938204,.0048856,74.0641,268.6191,271.4686,158.9528,0,U,33844,999,88857,.36399E-3,.1002E-4,0
COSMOS 2251 DEB,1993-036CR,2026-03-01T18:34:37.387776,14.44714394,.0043436,74.0300,210.5059,251.2665,216.1309,0,U,33848,999,88972,.13344E-2,.4658E-4,0
COSMOS 2251 DEB,1993-036CV,2026-02-28T18:15:36.733248,14.23647552,.01135279,73.8039,319.6905,336.2040,80.3585,0,U,33892,999,88065,.63858822E-3,.1529E-4,0
COSMOS 2251 DEB,1993-036CX,2026-03-01T19:09:51.270048,13.21467857,.0572593,73.7635,226.7442,134.8582,230.0528,0,U,33894,999,81752,.19843E-2,.1925E-4,0
COSMOS 2251 DEB,1993-036CZ,2026-03-01T19:44:09.763008,14.19316290,.0126304,73.7685,13.0697,176.6576,203.6731,0,U,33896,999,87862,.51696E-3,.1149E-4,0
COSMOS 2251 DEB,1993-036DC,2026-03-01T19:07:29.021952,14.61951819,.0057002,74.0529,294.6357,335.0142,106.5545,0,U,33899,999,89994,.56041E-3,.2842E-4,0
COSMOS 2251 DEB,1993-036DD,2026-03-01T19:47:30.907392,14.58729479,.0048298,74.0175,209.1358,338.7945,140.2620,0,U,33900,999,90189,.49669E-3,.2326E-4,0
COSMOS 2251 DEB,1993-036DE,2026-03-01T13:23:23.333280,15.27536495,.0028746,73.7707,241.0202,1.9599,358.1708,0,U,33901,999,90712,.33603E-2,.92731E-3,0
COSMOS 2251 DEB,1993-036DJ,2026-03-01T18:09:44.260128,14.35715817,.0056783,73.8866,170.3591,40.3281,86.7622,0,U,33905,999,88821,.61733E-3,.179E-4,0
COSMOS 2251 DEB,1993-036DK,2026-03-01T17:52:50.725920,14.58604061,.0034122,74.0297,171.1742,190.8524,329.8301,0,U,33906,999,89159,.23717E-2,.11118E-3,0
COSMOS 2251 DEB,1993-036DL,2026-03-01T14:23:09.837024,14.31666469,.011275,74.0676,250.2782,287.4875,144.6920,0,U,33907,999,87708,.16095E-2,.4577E-4,0
COSMOS 2251 DEB,1993-036DM,2026-03-01T11:07:59.823840,14.08083198,.0214959,73.8361,65.9802,75.0921,287.3909,0,U,33908,999,86581,.13728E-2,.2866E-4,0
COSMOS 2251 DEB,1993-036DQ,2026-03-01T14:35:19.754592,14.77210778,.001609,74.0918,7.9837,276.7942,140.2700,0,U,33911,999,89808,.255E-2,.18119E-3,0
COSMOS 2251 DEB,1993-036DR,2026-03-01T10:16:58.836864,14.52483486,.000829,74.0340,41.4196,108.8588,56.3742,0,U,33912,999,89575,.94714E-3,.3842E-4,0
COSMOS 2251 DEB,1993-036DS,2026-03-01T09:16:15.603744,14.48878580,.0045473,74.0345,36.2450,121.3827,357.0433,0,U,33913,999,89596,.65462E-3,.2482E-4,0
COSMOS 2251 DEB,1993-036DT,2026-03-01T20:17:10.582368,13.72105714,.0303417,74.0877,244.7110,329.2221,139.3429,0,U,33914,999,85166,.36832E-3,.442E-5,0
COSMOS 2251 DEB,1993-036DU,2026-03-01T14:38:04.701696,14.35343109,.0106052,74.0402,249.5315,322.0739,105.4111,0,U,33915,999,88889,.38479E-3,.1148E-4,0
COSMOS 2251 DEB,1993-036DV,2026-03-01T16:28:03.324576,13.68690319,.0323806,74.0490,270.8742,65.2414,359.9125,0,U,33916,999,84971,.41815E-3,.498E-5,0
COSMOS 2251 DEB,1993-036DW,2026-03-01T19:53:41.622144,13.69635251,.0329225,74.1100,352.6917,75.1922,288.5420,0,U,33917,999,84816,.15418E-2,.1951E-4,0
COSMOS 2251 DEB,1993-036DZ,2026-03-01T15:00:28.930176,14.59771272,.0032015,74.0605,148.3605,139.7287,220.6259,0,U,33920,999,89265,.15908E-2,.763E-4,0
COSMOS 2251 DEB,1993-036EB,2026-03-01T20:12:42.935040,14.49826557,.0020811,74.0494,359.4035,91.2516,334.9212,0,U,33922,999,89724,.48801E-3,.1861E-4,0
COSMOS 2251 DEB,1993-036ED,2026-03-01T15:52:17.082048,13.50368307,.0401941,73.9134,143.3372,164.6960,196.6737,0,U,33924,999,83804,.73516E-3,.758E-5,0
COSMOS 2251 DEB,1993-036EH,2026-03-01T20:08:43.734912,14.47599570,.0060899,73.9227,263.6126,182.5708,177.5147,0,U,33928,999,89789,.27852E-3,.1021E-4,0
COSMOS 2251 DEB,1993-036EM,2026-03-01T17:31:42.678912,14.39014861,.0037198,74.0343,170.2030,231.5723,128.2090,0,U,33932,999,89134,.52971E-3,.1622E-4,0
